{"type": "FeatureCollection", "features": [ {"type": "Feature", "properties": {"norad_id": 32384, "name": "GPS BIIRM-5 (PRN 29)", "group": "gps-ops", "lat": -50.955538191271515, "lon": -137.20510998208192, "alt_km": 20237.32168351456, "timestamp": "2025-12-09T11:33:55.058394+00:00", "meta": {"OBJECT_NAME": "GPS BIIRM-5 (PRN 29)", "OBJECT_ID": "2007-062A", "EPOCH": "2025-12-09T04:27:19.804032", "MEAN_MOTION": 2.00577042, "ECCENTRICITY": 0.0032222, "INCLINATION": 55.1854, "RA_OF_ASC_NODE": 281.7885, "ARG_OF_PERICENTER": 162.5723, "MEAN_ANOMALY": 272.1574, "EPHEMERIS_TYPE": 0, "CLASSIFICATION_TYPE": "U", "NORAD_CAT_ID": 32384, "ELEMENT_SET_NO": 999, "REV_AT_EPOCH": 13170, "BSTAR": 0, "MEAN_MOTION_DOT": -5.2e-07, "MEAN_MOTION_DDOT": 0}, "tle": {"line1": "1 32384U 07062A   25343.18564588 -.00000052  00000+0  00000+0 0  9993", "line2": "2 32384  55.1854 281.7885 0032222 162.5723 272.1574  2.00577042131703"}}, "geometry": {"type": "Point", "coordinates": [-137.20510998208192, -50.955538191271515]}}, {"type": "Feature", "properties": {"norad_id": 32711, "name": "GPS BIIRM-6 (PRN 07)", "group": "gps-ops", "lat": -25.486677915378102, "lon": -2.587957527707157, "alt_km": 19731.86104913136, "timestamp": "2025-12-09T11:33:55.058405+00:00", "meta": {"OBJECT_NAME": "GPS BIIRM-6 (PRN 07)", "OBJECT_ID": "2008-012A", "EPOCH": "2025-12-08T16:26:43.186848", "MEAN_MOTION": 2.00565395, "ECCENTRICITY": 0.0202275, "INCLINATION": 54.4766, "RA_OF_ASC_NODE": 157.5348, "ARG_OF_PERICENTER": 244.9025, "MEAN_ANOMALY": 112.9918, "EPHEMERIS_TYPE": 0, "CLASSIFICATION_TYPE": "U", "NORAD_CAT_ID": 32711, "ELEMENT_SET_NO": 999, "REV_AT_EPOCH": 12993, "BSTAR": 0, "MEAN_MOTION_DOT": 6e-07, "MEAN_MOTION_DDOT": 0}, "tle": {"line1": "1 32711U 08012A   25342.68522207  .00000060  00000+0  00000+0 0  9997", "line2": "2 32711  54.4766 157.5348 0202275 244.9025 112.9918  2.00565395129935"}}, "geometry": {"type": "Point", "coordinates": [-2.587957527707157, -25.486677915378102]}}, {"type": "Feature", "properties": {"norad_id": 35752, "name": "GPS BIIRM-8 (PRN 05)", "group": "gps-ops", "lat": -41.79415420839418, "lon": -108.13823792114503, "alt_km": 20308.069559244956, "timestamp": "2025-12-09T11:33:55.058417+00:00", "meta": {"OBJECT_NAME": "GPS BIIRM-8 (PRN 05)", "OBJECT_ID": "2009-043A", "EPOCH": "2025-12-09T03:40:35.787072", "MEAN_MOTION": 2.00565819, "ECCENTRICITY": 0.0051902, "INCLINATION": 56.0885, "RA_OF_ASC_NODE": 34.9246, "ARG_OF_PERICENTER": 81.9687, "MEAN_ANOMALY": 273.8421, "EPHEMERIS_TYPE": 0, "CLASSIFICATION_TYPE": "U", "NORAD_CAT_ID": 35752, "ELEMENT_SET_NO": 999, "REV_AT_EPOCH": 11954, "BSTAR": 0, "MEAN_MOTION_DOT": -8.5e-07, "MEAN_MOTION_DDOT": 0}, "tle": {"line1": "1 35752U 09043A   25343.15319198 -.00000085  00000+0  00000+0 0  9994", "line2": "2 35752  56.0885  34.9246 0051902  81.9687 273.8421  2.00565819119543"}}, "geometry": {"type": "Point", "coordinates": [-108.13823792114503, -41.79415420839418]}}, {"type": "Feature", "properties": {"norad_id": 36585, "name": "GPS BIIF-1  (PRN 25)", "group": "gps-ops", "lat": -7.955004471951499, "lon": -149.54807244177164, "alt_km": 20092.69826401991, "timestamp": "2025-12-09T11:33:55.058428+00:00", "meta": {"OBJECT_NAME": "GPS BIIF-1  (PRN 25)", "OBJECT_ID": "2010-022A", "EPOCH": "2025-12-09T03:49:25.990176", "MEAN_MOTION": 2.0055298, "ECCENTRICITY": 0.0125962, "INCLINATION": 54.3007, "RA_OF_ASC_NODE": 216.2184, "ARG_OF_PERICENTER": 65.0334, "MEAN_ANOMALY": 53.7315, "EPHEMERIS_TYPE": 0, "CLASSIFICATION_TYPE": "U", "NORAD_CAT_ID": 36585, "ELEMENT_SET_NO": 999, "REV_AT_EPOCH": 11378, "BSTAR": 0, "MEAN_MOTION_DOT": 1.4e-07, "MEAN_MOTION_DDOT": 0}, "tle": {"line1": "1 36585U 10022A   25343.15932859  .00000014  00000+0  00000+0 0  9994", "line2": "2 36585  54.3007 216.2184 0125962  65.0334  53.7315  2.00552980113783"}}, "geometry": {"type": "Point", "coordinates": [-149.54807244177164, -7.955004471951499]}}, {"type": "Feature", "properties": {"norad_id": 38833, "name": "GPS BIIF-3  (PRN 24)", "group": "gps-ops", "lat": 53.53312183439825, "lon": -118.85838079061693, "alt_km": 19754.607363515435, "timestamp": "2025-12-09T11:33:55.058439+00:00", "meta": {"OBJECT_NAME": "GPS BIIF-3  (PRN 24)", "OBJECT_ID": "2012-053A", "EPOCH": "2025-12-08T20:42:06.969024", "MEAN_MOTION": 2.00564932, "ECCENTRICITY": 0.0175665, "INCLINATION": 53.5568, "RA_OF_ASC_NODE": 151.3974, "ARG_OF_PERICENTER": 63.9455, "MEAN_ANOMALY": 297.8485, "EPHEMERIS_TYPE": 0, "CLASSIFICATION_TYPE": "U", "NORAD_CAT_ID": 38833, "ELEMENT_SET_NO": 999, "REV_AT_EPOCH": 9562, "BSTAR": 0, "MEAN_MOTION_DOT": 5.9e-07, "MEAN_MOTION_DDOT": 0}, "tle": {"line1": "1 38833U 12053A   25342.86258066  .00000059  00000+0  00000+0 0  9995", "line2": "2 38833  53.5568 151.3974 0175665  63.9455 297.8485  2.00564932 95627"}}, "geometry": {"type": "Point", "coordinates": [-118.85838079061693, 53.53312183439825]}}, {"type": "Feature", "properties": {"norad_id": 39166, "name": "GPS BIIF-4  (PRN 27)", "group": "gps-ops", "lat": -6.237878953000459, "lon": 101.13076797951304, "alt_km": 20456.798302204206, "timestamp": "2025-12-09T11:33:55.058451+00:00", "meta": {"OBJECT_NAME": "GPS BIIF-4  (PRN 27)", "OBJECT_ID": "2013-023A", "EPOCH": "2025-12-08T05:28:17.877216", "MEAN_MOTION": 2.00565078, "ECCENTRICITY": 0.01376231, "INCLINATION": 54.656, "RA_OF_ASC_NODE": 276.7517, "ARG_OF_PERICENTER": 48.5653, "MEAN_ANOMALY": 312.6225, "EPHEMERIS_TYPE": 0, "CLASSIFICATION_TYPE": "U", "NORAD_CAT_ID": 39166, "ELEMENT_SET_NO": 999, "REV_AT_EPOCH": 9205, "BSTAR": 0, "MEAN_MOTION_DOT": -4.1e-07, "MEAN_MOTION_DDOT": 0}, "tle": {"line1": "1 39166U 13023A   25342.22798469 -.00000041  00000+0  00000+0 0  9991", "line2": "2 39166  54.6560 276.7517 0137623  48.5653 312.6225  2.00565078 92051"}}, "geometry": {"type": "Point", "coordinates": [101.13076797951304, -6.237878953000459]}}, {"type": "Feature", "properties": {"norad_id": 39533, "name": "GPS BIIF-5  (PRN 30)", "group": "gps-ops", "lat": -6.786673940186674, "lon": -17.916836751024228, "alt_km": 20016.419254736837, "timestamp": "2025-12-09T11:33:55.058461+00:00", "meta": {"OBJECT_NAME": "GPS BIIF-5  (PRN 30)", "OBJECT_ID": "2014-008A", "EPOCH": "2025-12-08T17:17:53.714976", "MEAN_MOTION": 2.00574163, "ECCENTRICITY": 0.0079112, "INCLINATION": 53.6309, "RA_OF_ASC_NODE": 157.0886, "ARG_OF_PERICENTER": 226.4438, "MEAN_ANOMALY": 132.9028, "EPHEMERIS_TYPE": 0, "CLASSIFICATION_TYPE": "U", "NORAD_CAT_ID": 39533, "ELEMENT_SET_NO": 999, "REV_AT_EPOCH": 8586, "BSTAR": 0, "MEAN_MOTION_DOT": 5.9e-07, "MEAN_MOTION_DDOT": 0}, "tle": {"line1": "1 39533U 14008A   25342.72076059  .00000059  00000+0  00000+0 0  9990", "line2": "2 39533  53.6309 157.0886 0079112 226.4438 132.9028  2.00574163 85865"}}, "geometry": {"type": "Point", "coordinates": [-17.916836751024228, -6.786673940186674]}}, {"type": "Feature", "properties": {"norad_id": 39741, "name": "GPS BIIF-6  (PRN 06)", "group": "gps-ops", "lat": -12.351496477077976, "lon": -29.414503236121373, "alt_km": 20091.53650023376, "timestamp": "2025-12-09T11:33:55.058473+00:00", "meta": {"OBJECT_NAME": "GPS BIIF-6  (PRN 06)", "OBJECT_ID": "2014-026A", "EPOCH": "2025-12-09T00:05:22.716960", "MEAN_MOTION": 2.00561537, "ECCENTRICITY": 0.0039085, "INCLINATION": 56.5851, "RA_OF_ASC_NODE": 338.9217, "ARG_OF_PERICENTER": 318.4622, "MEAN_ANOMALY": 41.2516, "EPHEMERIS_TYPE": 0, "CLASSIFICATION_TYPE": "U", "NORAD_CAT_ID": 39741, "ELEMENT_SET_NO": 999, "REV_AT_EPOCH": 8472, "BSTAR": 0, "MEAN_MOTION_DOT": -8.4e-07, "MEAN_MOTION_DDOT": 0}, "tle": {"line1": "1 39741U 14026A   25343.00373515 -.00000084  00000+0  00000+0 0  9999", "line2": "2 39741  56.5851 338.9217 0039085 318.4622  41.2516  2.00561537 84729"}}, "geometry": {"type": "Point", "coordinates": [-29.414503236121373, -12.351496477077976]}}, {"type": "Feature", "properties": {"norad_id": 40105, "name": "GPS BIIF-7  (PRN 09)", "group": "gps-ops", "lat": -53.375402594816634, "lon": 27.02332393298236, "alt_km": 20270.17637431865, "timestamp": "2025-12-09T11:33:55.058484+00:00", "meta": {"OBJECT_NAME": "GPS BIIF-7  (PRN 09)", "OBJECT_ID": "2014-045A", "EPOCH": "2025-12-08T14:13:50.768544", "MEAN_MOTION": 2.00572212, "ECCENTRICITY": 0.00327724, "INCLINATION": 55.2267, "RA_OF_ASC_NODE": 96.0644, "ARG_OF_PERICENTER": 119.7768, "MEAN_ANOMALY": 240.5333, "EPHEMERIS_TYPE": 0, "CLASSIFICATION_TYPE": "U", "NORAD_CAT_ID": 40105, "ELEMENT_SET_NO": 999, "REV_AT_EPOCH": 8225, "BSTAR": 0, "MEAN_MOTION_DOT": 0, "MEAN_MOTION_DDOT": 0}, "tle": {"line1": "1 40105U 14045A   25342.59294871  .00000000  00000+0  00000+0 0  9993", "line2": "2 40105  55.2267  96.0644 0032772 119.7768 240.5333  2.00572212 82256"}}, "geometry": {"type": "Point", "coordinates": [27.02332393298236, -53.375402594816634]}}, {"type": "Feature", "properties": {"norad_id": 40294, "name": "GPS BIIF-8  (PRN 03)", "group": "gps-ops", "lat": 8.566132240339027, "lon": 43.9327453061696, "alt_km": 20097.24769740374, "timestamp": "2025-12-09T11:33:55.058496+00:00", "meta": {"OBJECT_NAME": "GPS BIIF-8  (PRN 03)", "OBJECT_ID": "2014-068A", "EPOCH": "2025-12-08T11:17:40.854336", "MEAN_MOTION": 2.00564487, "ECCENTRICITY": 0.00607942, "INCLINATION": 56.8546, "RA_OF_ASC_NODE": 38.3112, "ARG_OF_PERICENTER": 69.2801, "MEAN_ANOMALY": 291.427, "EPHEMERIS_TYPE": 0, "CLASSIFICATION_TYPE": "U", "NORAD_CAT_ID": 40294, "ELEMENT_SET_NO": 999, "REV_AT_EPOCH": 8138, "BSTAR": 0, "MEAN_MOTION_DOT": -7.8e-07, "MEAN_MOTION_DDOT": 0}, "tle": {"line1": "1 40294U 14068A   25342.47061174 -.00000078  00000+0  00000+0 0  9998", "line2": "2 40294  56.8546  38.3112 0060794  69.2801 291.4270  2.00564487 81386"}}, "geometry": {"type": "Point", "coordinates": [43.9327453061696, 8.566132240339027]}}]}